start=new Date('2023-01-29T00:00:00.000Z').valueOf();
sats=[{"GP_ID":"223884139","RA_OF_ASC_NODE":"330.9175","LAUNCH_DATE":"2022-05-14","NORAD_CAT_ID":"52636","PERIAPSIS":"538.873","REF_FRAME":"TEME","MEAN_ELEMENT_THEORY":"SGP4","MEAN_ANOMALY":"269.2602","ARG_OF_PERICENTER":"90.8529","TIME_SYSTEM":"UTC","SEMIMAJOR_AXIS":"6917.848","PERIOD":"95.437","RCS_SIZE":"LARGE","CLASSIFICATION_TYPE":"U","OBJECT_ID":"2022-052AQ","INCLINATION":"53.2162","MEAN_MOTION_DDOT":"0.0000000000000","TLE_LINE1":"1 52636U 22052AQ  23028.22366411  .00012206  00000-0  78345-3 0  9994","APOAPSIS":"540.552","EPHEMERIS_TYPE":"0","FILE":"3763955","ECCENTRICITY":"0.00012140","SITE":"AFETR","MEAN_MOTION_DOT":"0.00012206","EPOCH":"2023-01-28T05:22:04.579104","REV_AT_EPOCH":"3980","OBJECT_TYPE":"PAYLOAD","TLE_LINE2":"2 52636  53.2162 330.9175 0001214  90.8529 269.2602 15.08850735 39801","CENTER_NAME":"EARTH","OBJECT_NAME":"STARLINK-3967","BSTAR":"0.00078345000000","ELEMENT_SET_NO":"999","COUNTRY_CODE":"US","DECAY_DATE":null,"MEAN_MOTION":"15.08850735"},{"CENTER_NAME":"EARTH","TLE_LINE2":"2 52637  53.2157 318.0731 0001338  89.9409 270.1736 15.08840448 40467","OBJECT_NAME":"STARLINK-3961","EPOCH":"2023-01-28T20:34:52.008960","OBJECT_TYPE":"PAYLOAD","REV_AT_EPOCH":"4046","MEAN_MOTION_DOT":"0.00002654","SITE":"AFETR","FILE":"3764201","EPHEMERIS_TYPE":"0","ECCENTRICITY":"0.00013380","MEAN_MOTION":"15.08840448","DECAY_DATE":null,"BSTAR":"0.00018477000000","COUNTRY_CODE":"US","ELEMENT_SET_NO":"999","MEAN_ANOMALY":"270.1736","ARG_OF_PERICENTER":"89.9409","REF_FRAME":"TEME","PERIAPSIS":"538.818","NORAD_CAT_ID":"52637","MEAN_ELEMENT_THEORY":"SGP4","LAUNCH_DATE":"2022-05-14","RA_OF_ASC_NODE":"318.0731","GP_ID":"223912886","MEAN_MOTION_DDOT":"0.0000000000000","APOAPSIS":"540.670","TLE_LINE1":"1 52637U 22052AR  23028.85754640  .00002654  00000-0  18477-3 0  9995","OBJECT_ID":"2022-052AR","CLASSIFICATION_TYPE":"U","INCLINATION":"53.2157","SEMIMAJOR_AXIS":"6917.879","TIME_SYSTEM":"UTC","RCS_SIZE":"LARGE","PERIOD":"95.438"},{"LAUNCH_DATE":"2022-05-14","RA_OF_ASC_NODE":"330.9383","GP_ID":"223880090","ARG_OF_PERICENTER":"105.9864","MEAN_ANOMALY":"254.1277","REF_FRAME":"TEME","PERIAPSIS":"538.786","NORAD_CAT_ID":"52638","MEAN_ELEMENT_THEORY":"SGP4","SEMIMAJOR_AXIS":"6917.856","TIME_SYSTEM":"UTC","RCS_SIZE":"LARGE","PERIOD":"95.437","MEAN_MOTION_DDOT":"0.0000000000000","APOAPSIS":"540.657","TLE_LINE1":"1 52638U 22052AS  23028.21999093  .00011820  00000-0  75930-3 0  9991","OBJECT_ID":"2022-052AS","CLASSIFICATION_TYPE":"U","INCLINATION":"53.2146","MEAN_MOTION_DOT":"0.00011820","SITE":"AFETR","EPHEMERIS_TYPE":"0","FILE":"3763924","ECCENTRICITY":"0.00013520","CENTER_NAME":"EARTH","TLE_LINE2":"2 52638  53.2146 330.9383 0001352 105.9864 254.1277 15.08847822 40232","OBJECT_NAME":"STARLINK-3941","EPOCH":"2023-01-28T05:16:47.216352","OBJECT_TYPE":"PAYLOAD","REV_AT_EPOCH":"4023","MEAN_MOTION":"15.08847822","DECAY_DATE":null,"BSTAR":"0.00075930000000","COUNTRY_CODE":"US","ELEMENT_SET_NO":"999"},{"RCS_SIZE":"LARGE","PERIOD":"95.437","SEMIMAJOR_AXIS":"6917.865","TIME_SYSTEM":"UTC","APOAPSIS":"540.583","TLE_LINE1":"1 52639U 22052AT  23028.25033835  .00001564  00000-0  11634-3 0  9994","MEAN_MOTION_DDOT":"0.0000000000000","INCLINATION":"53.2157","CLASSIFICATION_TYPE":"U","OBJECT_ID":"2022-052AT","LAUNCH_DATE":"2022-05-14","RA_OF_ASC_NODE":"320.8011","GP_ID":"223880340","ARG_OF_PERICENTER":"73.1534","MEAN_ANOMALY":"286.9593","MEAN_ELEMENT_THEORY":"SGP4","REF_FRAME":"TEME","PERIAPSIS":"538.877","NORAD_CAT_ID":"52639","MEAN_MOTION":"15.08845141","DECAY_DATE":null,"ELEMENT_SET_NO":"999","COUNTRY_CODE":"US","BSTAR":"0.00011634000000","MEAN_MOTION_DOT":"0.00001564","SITE":"AFETR","ECCENTRICITY":"0.00012330","FILE":"3763924","EPHEMERIS_TYPE":"0","OBJECT_NAME":"STARLINK-3968","CENTER_NAME":"EARTH","TLE_LINE2":"2 52639  53.2157 320.8011 0001233  73.1534 286.9593 15.08845141 40370","OBJECT_TYPE":"PAYLOAD","REV_AT_EPOCH":"4037","EPOCH":"2023-01-28T06:00:29.233440"},{"EPHEMERIS_TYPE":"0","FILE":"3764201","ECCENTRICITY":"0.00010690","SITE":"AFETR","MEAN_MOTION_DOT":"0.00001136","EPOCH":"2023-01-28T19:06:09.578016","REV_AT_EPOCH":"3964","OBJECT_TYPE":"PAYLOAD","CENTER_NAME":"EARTH","TLE_LINE2":"2 52640  53.2176 318.3439 0001069  88.9355 271.1760 15.08841350 39649","OBJECT_NAME":"STARLINK-3977","BSTAR":"0.00008944100000","ELEMENT_SET_NO":"999","COUNTRY_CODE":"US","DECAY_DATE":null,"MEAN_MOTION":"15.08841350","GP_ID":"223912137","RA_OF_ASC_NODE":"318.3439","LAUNCH_DATE":"2022-05-14","NORAD_CAT_ID":"52640","REF_FRAME":"TEME","PERIAPSIS":"539.002","MEAN_ELEMENT_THEORY":"SGP4","MEAN_ANOMALY":"271.1760","ARG_OF_PERICENTER":"88.9355","TIME_SYSTEM":"UTC","SEMIMAJOR_AXIS":"6917.876","PERIOD":"95.437","RCS_SIZE":"LARGE","OBJECT_ID":"2022-052AU","CLASSIFICATION_TYPE":"U","INCLINATION":"53.2176","MEAN_MOTION_DDOT":"0.0000000000000","APOAPSIS":"540.481","TLE_LINE1":"1 52640U 22052AU  23028.79594419  .00001136  00000-0  89441-4 0  9992"},{"ELEMENT_SET_NO":"999","COUNTRY_CODE":"US","BSTAR":"0.00056612000000","DECAY_DATE":null,"MEAN_MOTION":"15.08842087","REV_AT_EPOCH":"3965","OBJECT_TYPE":"PAYLOAD","EPOCH":"2023-01-28T18:38:17.165184","OBJECT_NAME":"STARLINK-3991","TLE_LINE2":"2 52641  53.2168 318.4341 0001068 101.6574 258.4538 15.08842087 39659","CENTER_NAME":"EARTH","ECCENTRICITY":"0.00010680","FILE":"3764201","EPHEMERIS_TYPE":"0","SITE":"AFETR","MEAN_MOTION_DOT":"0.00008734","INCLINATION":"53.2168","CLASSIFICATION_TYPE":"U","OBJECT_ID":"2022-052AV","APOAPSIS":"540.478","TLE_LINE1":"1 52641U 22052AV  23028.77658756  .00008734  00000-0  56612-3 0  9990","MEAN_MOTION_DDOT":"0.0000000000000","PERIOD":"95.437","RCS_SIZE":"LARGE","TIME_SYSTEM":"UTC","SEMIMAJOR_AXIS":"6917.874","MEAN_ELEMENT_THEORY":"SGP4","NORAD_CAT_ID":"52641","PERIAPSIS":"539.000","REF_FRAME":"TEME","ARG_OF_PERICENTER":"101.6574","MEAN_ANOMALY":"258.4538","GP_ID":"223912387","RA_OF_ASC_NODE":"318.4341","LAUNCH_DATE":"2022-05-14"},{"BSTAR":"0.00002850000000","ELEMENT_SET_NO":"999","COUNTRY_CODE":"US","MEAN_MOTION":"15.08838285","DECAY_DATE":null,"EPOCH":"2023-01-28T18:54:10.307520","OBJECT_TYPE":"PAYLOAD","REV_AT_EPOCH":"3964","CENTER_NAME":"EARTH","TLE_LINE2":"2 52642  53.2178 318.3796 0001301 113.2874 246.8256 15.08838285 39648","OBJECT_NAME":"STARLINK-3971","EPHEMERIS_TYPE":"0","FILE":"3764201","ECCENTRICITY":"0.00013010","MEAN_MOTION_DOT":"0.00000166","SITE":"AFETR","OBJECT_ID":"2022-052AW","CLASSIFICATION_TYPE":"U","INCLINATION":"53.2178","MEAN_MOTION_DDOT":"0.0000000000000","APOAPSIS":"540.651","TLE_LINE1":"1 52642U 22052AW  23028.78761930  .00000166  00000-0  28500-4 0  9998","SEMIMAJOR_AXIS":"6917.886","TIME_SYSTEM":"UTC","RCS_SIZE":"LARGE","PERIOD":"95.438","PERIAPSIS":"538.851","REF_FRAME":"TEME","NORAD_CAT_ID":"52642","MEAN_ELEMENT_THEORY":"SGP4","MEAN_ANOMALY":"246.8256","ARG_OF_PERICENTER":"113.2874","RA_OF_ASC_NODE":"318.3796","GP_ID":"223913135","LAUNCH_DATE":"2022-05-14"},{"MEAN_ELEMENT_THEORY":"SGP4","PERIAPSIS":"538.937","REF_FRAME":"TEME","NORAD_CAT_ID":"52643","ARG_OF_PERICENTER":"77.3539","MEAN_ANOMALY":"282.7581","RA_OF_ASC_NODE":"321.1637","GP_ID":"223880840","LAUNCH_DATE":"2022-05-14","INCLINATION":"53.2148","OBJECT_ID":"2022-052AX","CLASSIFICATION_TYPE":"U","TLE_LINE1":"1 52643U 22052AX  23028.16938019  .00003119  00000-0  21394-3 0  9999","APOAPSIS":"540.517","MEAN_MOTION_DDOT":"0.0000000000000","RCS_SIZE":"LARGE","PERIOD":"95.437","SEMIMAJOR_AXIS":"6917.862","TIME_SYSTEM":"UTC","OBJECT_TYPE":"PAYLOAD","REV_AT_EPOCH":"3955","EPOCH":"2023-01-28T04:03:54.448416","OBJECT_NAME":"STARLINK-3963","TLE_LINE2":"2 52643  53.2148 321.1637 0001142  77.3539 282.7581 15.08845933 39551","CENTER_NAME":"EARTH","ECCENTRICITY":"0.00011420","EPHEMERIS_TYPE":"0","FILE":"3763924","MEAN_MOTION_DOT":"0.00003119","SITE":"AFETR","COUNTRY_CODE":"US","ELEMENT_SET_NO":"999","BSTAR":"0.00021394000000","MEAN_MOTION":"15.08845933","DECAY_DATE":null},{"LAUNCH_DATE":"2022-05-14","RA_OF_ASC_NODE":"318.1069","GP_ID":"223912637","MEAN_ANOMALY":"278.1233","ARG_OF_PERICENTER":"81.9898","PERIAPSIS":"538.886","REF_FRAME":"TEME","NORAD_CAT_ID":"52644","MEAN_ELEMENT_THEORY":"SGP4","SEMIMAJOR_AXIS":"6917.868","TIME_SYSTEM":"UTC","RCS_SIZE":"MEDIUM","PERIOD":"95.437","MEAN_MOTION_DDOT":"0.0000000000000","TLE_LINE1":"1 52644U 22052AY  23028.85018195  .00002035  00000-0  14590-3 0  9996","APOAPSIS":"540.579","CLASSIFICATION_TYPE":"U","OBJECT_ID":"2022-052AY","INCLINATION":"53.2162","MEAN_MOTION_DOT":"0.00002035","SITE":"AFETR","FILE":"3764201","EPHEMERIS_TYPE":"0","ECCENTRICITY":"0.00012240","CENTER_NAME":"EARTH","TLE_LINE2":"2 52644  53.2162 318.1069 0001224  81.9898 278.1233 15.08844135 39650","OBJECT_NAME":"STARLINK-3985","EPOCH":"2023-01-28T20:24:15.720480","OBJECT_TYPE":"PAYLOAD","REV_AT_EPOCH":"3965","MEAN_MOTION":"15.08844135","DECAY_DATE":null,"BSTAR":"0.00014590000000","COUNTRY_CODE":"US","ELEMENT_SET_NO":"999"},{"PERIOD":"95.437","RCS_SIZE":"LARGE","TIME_SYSTEM":"UTC","SEMIMAJOR_AXIS":"6917.849","TLE_LINE1":"1 52645U 22052AZ  23028.23289839  .00017046  00000-0  10862-2 0  9999","APOAPSIS":"540.502","MEAN_MOTION_DDOT":"0.0000000000000","INCLINATION":"53.2142","OBJECT_ID":"2022-052AZ","CLASSIFICATION_TYPE":"U","LAUNCH_DATE":"2022-05-14","GP_ID":"223881841","RA_OF_ASC_NODE":"320.8840","MEAN_ANOMALY":"272.9344","ARG_OF_PERICENTER":"87.1778","MEAN_ELEMENT_THEORY":"SGP4","NORAD_CAT_ID":"52645","PERIAPSIS":"538.927","REF_FRAME":"TEME","DECAY_DATE":null,"MEAN_MOTION":"15.08850159","ELEMENT_SET_NO":"999","COUNTRY_CODE":"US","BSTAR":"0.00108620000000","SITE":"AFETR","MEAN_MOTION_DOT":"0.00017046","ECCENTRICITY":"0.00011380","FILE":"3763924","EPHEMERIS_TYPE":"0","OBJECT_NAME":"STARLINK-3973","TLE_LINE2":"2 52645  53.2142 320.8840 0001138  87.1778 272.9344 15.08850159 39563","CENTER_NAME":"EARTH","REV_AT_EPOCH":"3956","OBJECT_TYPE":"PAYLOAD","EPOCH":"2023-01-28T05:35:22.420896"}];
